[{"OBJECT_NAME":"IRIDIUM 108","OBJECT_ID":"2017-003H","EPOCH":"2026-03-09T14:45:22.333248","MEAN_MOTION":14.34217052,"ECCENTRICITY":0.000234,"INCLINATION":86.3916,"RA_OF_ASC_NODE":98.4141,"ARG_OF_PERICENTER":95.4169,"MEAN_ANOMALY":264.7294,"EPHEMERIS_TYPE":0,"CLASSIFICATION_TYPE":"U","NORAD_CAT_ID":41924,"ELEMENT_SET_NO":999,"REV_AT_EPOCH":48083,"BSTAR":9.2737e-7,"MEAN_MOTION_DOT":2.2e-7,"MEAN_MOTION_DDOT":0},{"OBJECT_NAME":"COSMOS 1275 DEB","OBJECT_ID":"1981-053JM","EPOCH":"2026-03-09T10:23:44.811456","MEAN_MOTION":14.31383163,"ECCENTRICITY":0.00344811,"INCLINATION":82.7882,"RA_OF_ASC_NODE":49.518,"ARG_OF_PERICENTER":195.2194,"MEAN_ANOMALY":322.7441,"EPHEMERIS_TYPE":0,"CLASSIFICATION_TYPE":"U","NORAD_CAT_ID":14557,"ELEMENT_SET_NO":999,"REV_AT_EPOCH":26554,"BSTAR":0.0022093578,"MEAN_MOTION_DOT":5.911e-5,"MEAN_MOTION_DDOT":0}]
